{
  "type": "FeatureCollection",
  "features": [
    {
      "type": "Feature",
      "properties": {
        "norad_id": 36614,
        "name": "COSMOS 2251 DEB",
        "group": "cosmos-2251-debris",
        "lat": -52.62107760525714,
        "lon": 9.519030737262602,
        "alt_km": 687.2015224250999,
        "timestamp": "2025-12-16T10:53:45.868540+00:00",
        "meta_object_name": "COSMOS 2251 DEB",
        "meta_object_id": "1993-036BEC",
        "meta_epoch": "2025-12-11T06:30:21.400992",
        "meta_mean_motion": 14.60233542,
        "meta_eccentricity": 0.00161993,
        "meta_inclination": 74.0218,
        "meta_ra_of_asc_node": 177.391,
        "meta_arg_of_pericenter": 247.2616,
        "meta_mean_anomaly": 112.6838,
        "meta_ephemeris_type": 0,
        "meta_classification_type": "U",
        "meta_norad_cat_id": 36614,
        "meta_element_set_no": 999,
        "meta_rev_at_epoch": 65591,
        "meta_bstar": 0.0024222077,
        "meta_mean_motion_dot": 0.00011696,
        "meta_mean_motion_ddot": 0,
        "tle_line1": "1 36614U 93036BEC 25345.27108103  .00011696  00000+0  24222-2 0  9998",
        "tle_line2": "2 36614  74.0218 177.3910 0016199 247.2616 112.6838 14.60233542655911"
      },
      "geometry": {
        "type": "Point",
        "coordinates": [
          9.519030737262602,
          -52.62107760525714
        ]
      }
    },
    {
      "type": "Feature",
      "properties": {
        "norad_id": 36622,
        "name": "COSMOS 2251 DEB",
        "group": "cosmos-2251-debris",
        "lat": 26.55826495437687,
        "lon": -50.0428325603944,
        "alt_km": 664.140949970154,
        "timestamp": "2025-12-16T10:53:45.868551+00:00",
        "meta_object_name": "COSMOS 2251 DEB",
        "meta_object_id": "1993-036BEL",
        "meta_epoch": "2025-12-13T04:07:59.528928",
        "meta_mean_motion": 14.76203873,
        "meta_eccentricity": 0.00688136,
        "meta_inclination": 74.0135,
        "meta_ra_of_asc_node": 144.6283,
        "meta_arg_of_pericenter": 279.9599,
        "meta_mean_anomaly": 79.3813,
        "meta_ephemeris_type": 0,
        "meta_classification_type": "U",
        "meta_norad_cat_id": 36622,
        "meta_element_set_no": 999,
        "meta_rev_at_epoch": 66756,
        "meta_bstar": 0.0010024349,
        "meta_mean_motion_dot": 7.182e-05,
        "meta_mean_motion_ddot": 0,
        "tle_line1": "1 36622U 93036BEL 25347.17221677  .00007182  00000+0  10024-2 0  9990",
        "tle_line2": "2 36622  74.0135 144.6283 0068813 279.9599  79.3813 14.76203873667567"
      },
      "geometry": {
        "type": "Point",
        "coordinates": [
          -50.0428325603944,
          26.55826495437687
        ]
      }
    },
    {
      "type": "Feature",
      "properties": {
        "norad_id": 36632,
        "name": "COSMOS 2251 DEB",
        "group": "cosmos-2251-debris",
        "lat": -50.61447283558938,
        "lon": 125.91219364832837,
        "alt_km": 775.8437840275446,
        "timestamp": "2025-12-16T10:53:45.868561+00:00",
        "meta_object_name": "COSMOS 2251 DEB",
        "meta_object_id": "1993-036BEW",
        "meta_epoch": "2025-12-13T13:36:30.735360",
        "meta_mean_motion": 14.43181896,
        "meta_eccentricity": 0.00321339,
        "meta_inclination": 74.0018,
        "meta_ra_of_asc_node": 290.8293,
        "meta_arg_of_pericenter": 38.3996,
        "meta_mean_anomaly": 321.9438,
        "meta_ephemeris_type": 0,
        "meta_classification_type": "U",
        "meta_norad_cat_id": 36632,
        "meta_element_set_no": 999,
        "meta_rev_at_epoch": 65227,
        "meta_bstar": 0.0011350112,
        "meta_mean_motion_dot": 3.814e-05,
        "meta_mean_motion_ddot": 0,
        "tle_line1": "1 36632U 93036BEW 25347.56702240  .00003814  00000+0  11350-2 0  9995",
        "tle_line2": "2 36632  74.0018 290.8293 0032133  38.3996 321.9438 14.43181896652272"
      },
      "geometry": {
        "type": "Point",
        "coordinates": [
          125.91219364832837,
          -50.61447283558938
        ]
      }
    },
    {
      "type": "Feature",
      "properties": {
        "norad_id": 37084,
        "name": "COSMOS 2251 DEB",
        "group": "cosmos-2251-debris",
        "lat": -65.82242355860664,
        "lon": 114.237600399168,
        "alt_km": 531.2359336359359,
        "timestamp": "2025-12-16T10:53:45.868572+00:00",
        "meta_object_name": "COSMOS 2251 DEB",
        "meta_object_id": "1993-036BFE",
        "meta_epoch": "2025-12-15T04:49:21.003456",
        "meta_mean_motion": 15.01025163,
        "meta_eccentricity": 0.00974986,
        "meta_inclination": 74.0262,
        "meta_ra_of_asc_node": 156.4351,
        "meta_arg_of_pericenter": 236.3802,
        "meta_mean_anomaly": 122.8054,
        "meta_ephemeris_type": 0,
        "meta_classification_type": "U",
        "meta_norad_cat_id": 37084,
        "meta_element_set_no": 999,
        "meta_rev_at_epoch": 66304,
        "meta_bstar": 0.00046158462,
        "meta_mean_motion_dot": 6.487e-05,
        "meta_mean_motion_ddot": 0,
        "tle_line1": "1 37084U 93036BFE 25349.20093754  .00006487  00000+0  46158-3 0  9997",
        "tle_line2": "2 37084  74.0262 156.4351 0097498 236.3802 122.8054 15.01025163663046"
      },
      "geometry": {
        "type": "Point",
        "coordinates": [
          114.237600399168,
          -65.82242355860664
        ]
      }
    },
    {
      "type": "Feature",
      "properties": {
        "norad_id": 37085,
        "name": "COSMOS 2251 DEB",
        "group": "cosmos-2251-debris",
        "lat": 15.99486647441192,
        "lon": 23.21957480336716,
        "alt_km": 446.4265757096946,
        "timestamp": "2025-12-16T10:53:45.868586+00:00",
        "meta_object_name": "COSMOS 2251 DEB",
        "meta_object_id": "1993-036BFF",
        "meta_epoch": "2025-12-13T09:00:31.802112",
        "meta_mean_motion": 15.41681601,
        "meta_eccentricity": 0.00213151,
        "meta_inclination": 73.9479,
        "meta_ra_of_asc_node": 214.6598,
        "meta_arg_of_pericenter": 52.8263,
        "meta_mean_anomaly": 307.4887,
        "meta_ephemeris_type": 0,
        "meta_classification_type": "U",
        "meta_norad_cat_id": 37085,
        "meta_element_set_no": 999,
        "meta_rev_at_epoch": 67147,
        "meta_bstar": 0.0024657072,
        "meta_mean_motion_dot": 0.00106285,
        "meta_mean_motion_ddot": 0,
        "tle_line1": "1 37085U 93036BFF 25347.37536808  .00106285  00000+0  24657-2 0  9992",
        "tle_line2": "2 37085  73.9479 214.6598 0021315  52.8263 307.4887 15.41681601671472"
      },
      "geometry": {
        "type": "Point",
        "coordinates": [
          23.21957480336716,
          15.99486647441192
        ]
      }
    },
    {
      "type": "Feature",
      "properties": {
        "norad_id": 37089,
        "name": "COSMOS 2251 DEB",
        "group": "cosmos-2251-debris",
        "lat": -13.794659381427401,
        "lon": -37.234719711348056,
        "alt_km": 650.3512224333672,
        "timestamp": "2025-12-16T10:53:45.868596+00:00",
        "meta_object_name": "COSMOS 2251 DEB",
        "meta_object_id": "1993-036BFK",
        "meta_epoch": "2025-12-15T02:35:52.652256",
        "meta_mean_motion": 14.5300115,
        "meta_eccentricity": 0.01350597,
        "meta_inclination": 74.0363,
        "meta_ra_of_asc_node": 141.2743,
        "meta_arg_of_pericenter": 240.987,
        "meta_mean_anomaly": 117.7703,
        "meta_ephemeris_type": 0,
        "meta_classification_type": "U",
        "meta_norad_cat_id": 37089,
        "meta_element_set_no": 999,
        "meta_rev_at_epoch": 66144,
        "meta_bstar": 0.0016025339,
        "meta_mean_motion_dot": 7.435e-05,
        "meta_mean_motion_ddot": 0,
        "tle_line1": "1 37089U 93036BFK 25349.10824829  .00007435  00000+0  16025-2 0  9999",
        "tle_line2": "2 37089  74.0363 141.2743 0135059 240.9870 117.7703 14.53001150661444"
      },
      "geometry": {
        "type": "Point",
        "coordinates": [
          -37.234719711348056,
          -13.794659381427401
        ]
      }
    },
    {
      "type": "Feature",
      "properties": {
        "norad_id": 37094,
        "name": "COSMOS 2251 DEB",
        "group": "cosmos-2251-debris",
        "lat": 56.97903971960379,
        "lon": -91.6397306215898,
        "alt_km": 713.4898409668685,
        "timestamp": "2025-12-16T10:53:45.868607+00:00",
        "meta_object_name": "COSMOS 2251 DEB",
        "meta_object_id": "1993-036BFQ",
        "meta_epoch": "2025-12-10T15:45:11.030688",
        "meta_mean_motion": 14.37808892,
        "meta_eccentricity": 0.0084108,
        "meta_inclination": 74.1091,
        "meta_ra_of_asc_node": 124.9809,
        "meta_arg_of_pericenter": 91.4784,
        "meta_mean_anomaly": 269.6007,
        "meta_ephemeris_type": 0,
        "meta_classification_type": "U",
        "meta_norad_cat_id": 37094,
        "meta_element_set_no": 999,
        "meta_rev_at_epoch": 84476,
        "meta_bstar": 0.0015212,
        "meta_mean_motion_dot": 4.753e-05,
        "meta_mean_motion_ddot": 0,
        "tle_line1": "1 37094U 93036BFQ 25344.65637767  .00004753  00000+0  15212-2 0  9990",
        "tle_line2": "2 37094  74.1091 124.9809 0084108  91.4784 269.6007 14.37808892844763"
      },
      "geometry": {
        "type": "Point",
        "coordinates": [
          -91.6397306215898,
          56.97903971960379
        ]
      }
    }
  ]
}